JILIN-1 GAOFEN 2B       
1 44836U 19086A   26068.94654977  .00008807  00000+0  41762-3 0  9997
2 44836  97.4960 141.6146 0013140 308.9475  51.0588 15.19449314345415
2022-019J               
1 51832U 22019J   26068.94700892  .00001770  00000+0  85342-4 0  9994
2 51832  97.3535 134.3032 0007898 206.0852 153.9986 15.19970869222725
